[
  {
    "address":"99 Lorem Ipsum",
    "zipcode":"99999",
    "city":"LoremCity",
    "phone_number":"0699999999"
  },
  {
    "address":"99 Lorem Ipsum",
    "zipcode":"99999",
    "city":"LoremCity",
    "phone_number":"0699999999"
  },
  {
    "address":"99 Lorem Ipsum",
    "zipcode":"99999",
    "city":"LoremCity",
    "phone_number":"0699999999"
  },
  {
    "address":"99 Lorem Ipsum",
    "zipcode":"99999",
    "city":"LoremCity",
    "phone_number":"0699999999"
  },
  {
    "address":"99 Lorem Ipsum",
    "zipcode":"99999",
    "city":"LoremCity",
    "phone_number":"0699999999"
  },
  {
    "address":"99 Lorem Ipsum",
    "zipcode":"99999",
    "city":"LoremCity",
    "phone_number":"0699999999"
  },
  {
    "address":"99 Lorem Ipsum",
    "zipcode":"99999",
    "city":"LoremCity",
    "phone_number":"0699999999"
  },
  {
    "address":"99 Lorem Ipsum",
    "zipcode":"99999",
    "city":"LoremCity",
    "phone_number":"0699999999"
  },
  {
    "address":"99 Lorem Ipsum",
    "zipcode":"99999",
    "city":"LoremCity",
    "phone_number":"0699999999"
  },
  {
    "address":"99 Lorem Ipsum",
    "zipcode":"99999",
    "city":"LoremCity",
    "phone_number":"0699999999"
  },
  {
    "address":"99 Lorem Ipsum",
    "zipcode":"99999",
    "city":"LoremCity",
    "phone_number":"0699999999"
  },
  {
    "address":"99 Lorem Ipsum",
    "zipcode":"99999",
    "city":"LoremCity",
    "phone_number":"0699999999"
  },
  {
    "address":"99 Lorem Ipsum",
    "zipcode":"99999",
    "city":"LoremCity",
    "phone_number":"0699999999"
  },
  {
    "address":"99 Lorem Ipsum",
    "zipcode":"99999",
    "city":"LoremCity",
    "phone_number":"0699999999"
  },
  {
    "address":"99 Lorem Ipsum",
    "zipcode":"99999",
    "city":"LoremCity",
    "phone_number":"0699999999"
  },
  {
    "address":"99 Lorem Ipsum",
    "zipcode":"99999",
    "city":"LoremCity",
    "phone_number":"0699999999"
  },
  {
    "address":"99 Lorem Ipsum",
    "zipcode":"99999",
    "city":"LoremCity",
    "phone_number":"0699999999"
  },
  {
    "address":"99 Lorem Ipsum",
    "zipcode":"99999",
    "city":"LoremCity",
    "phone_number":"0699999999"
  },
  {
    "address":"99 Lorem Ipsum",
    "zipcode":"99999",
    "city":"LoremCity",
    "phone_number":"0699999999"
  },
  {
    "address":"99 Lorem Ipsum",
    "zipcode":"99999",
    "city":"LoremCity",
    "phone_number":"0699999999"
  },
  {
    "address":"99 Lorem Ipsum",
    "zipcode":"99999",
    "city":"LoremCity",
    "phone_number":"0699999999"
  },
  {
    "address":"99 Lorem Ipsum",
    "zipcode":"99999",
    "city":"LoremCity",
    "phone_number":"0699999999"
  },
  {
    "address":"99 Lorem Ipsum",
    "zipcode":"99999",
    "city":"LoremCity",
    "phone_number":"0699999999"
  },
  {
    "address":"99 Lorem Ipsum",
    "zipcode":"99999",
    "city":"LoremCity",
    "phone_number":"0699999999"
  },
  {
    "address":"99 Lorem Ipsum",
    "zipcode":"99999",
    "city":"LoremCity",
    "phone_number":"0699999999"
  },
  {
    "address":"99 Lorem Ipsum",
    "zipcode":"99999",
    "city":"LoremCity",
    "phone_number":"0699999999"
  },
  {
    "address":"99 Lorem Ipsum",
    "zipcode":"99999",
    "city":"LoremCity",
    "phone_number":"0699999999"
  },
  {
    "address":"99 Lorem Ipsum",
    "zipcode":"99999",
    "city":"LoremCity",
    "phone_number":"0699999999"
  },
  {
    "address":"99 Lorem Ipsum",
    "zipcode":"99999",
    "city":"LoremCity",
    "phone_number":"0699999999"
  },
  {
    "address":"99 Lorem Ipsum",
    "zipcode":"99999",
    "city":"LoremCity",
    "phone_number":"0699999999"
  },
  {
    "address":"99 Lorem Ipsum",
    "zipcode":"99999",
    "city":"LoremCity",
    "phone_number":"0699999999"
  },
  {
    "address":"99 Lorem Ipsum",
    "zipcode":"99999",
    "city":"LoremCity",
    "phone_number":"0699999999"
  },
  {
    "address":"99 Lorem Ipsum",
    "zipcode":"99999",
    "city":"LoremCity",
    "phone_number":"0699999999"
  },
  {
    "address":"99 Lorem Ipsum",
    "zipcode":"99999",
    "city":"LoremCity",
    "phone_number":"0699999999"
  },
  {
    "address":"99 Lorem Ipsum",
    "zipcode":"99999",
    "city":"LoremCity",
    "phone_number":"0699999999"
  },
  {
    "address":"99 Lorem Ipsum",
    "zipcode":"99999",
    "city":"LoremCity",
    "phone_number":"0699999999"
  },
  {
    "address":"99 Lorem Ipsum",
    "zipcode":"99999",
    "city":"LoremCity",
    "phone_number":"0699999999"
  },
  {
    "address":"99 Lorem Ipsum",
    "zipcode":"99999",
    "city":"LoremCity",
    "phone_number":"0699999999"
  },
  {
    "address":"99 Lorem Ipsum",
    "zipcode":"99999",
    "city":"LoremCity",
    "phone_number":"0699999999"
  },
  {
    "address":"99 Lorem Ipsum",
    "zipcode":"99999",
    "city":"LoremCity",
    "phone_number":"0699999999"
  },
  {
    "address":"99 Lorem Ipsum",
    "zipcode":"99999",
    "city":"LoremCity",
    "phone_number":"0699999999"
  },
  {
    "address":"99 Lorem Ipsum",
    "zipcode":"99999",
    "city":"LoremCity",
    "phone_number":"0699999999"
  }
]